{"type": "FeatureCollection", "features": [ {"type": "Feature", "properties": {"norad_id": 34014, "name": "COSMOS 2251 DEB", "group": "cosmos-2251-debris", "lat": -63.125869793502396, "lon": 133.2952259767914, "alt_km": 683.4409998294204, "timestamp": "2025-12-13T16:48:33.103363+00:00", "meta": {"OBJECT_NAME": "COSMOS 2251 DEB", "OBJECT_ID": "1993-036GZ", "EPOCH": "2025-12-11T23:16:17.632128", "MEAN_MOTION": 14.73123659, "ECCENTRICITY": 0.0036963, "INCLINATION": 74.017, "RA_OF_ASC_NODE": 282.2272, "ARG_OF_PERICENTER": 62.0466, "MEAN_ANOMALY": 11.2871, "EPHEMERIS_TYPE": 0, "CLASSIFICATION_TYPE": "U", "NORAD_CAT_ID": 34014, "ELEMENT_SET_NO": 999, "REV_AT_EPOCH": 89292, "BSTAR": 0.0015254, "MEAN_MOTION_DOT": 9.915e-05, "MEAN_MOTION_DDOT": 0}, "tle": {"line1": "1 34014U 93036GZ  25345.96964852  .00009915  00000+0  15254-2 0  9993", "line2": "2 34014  74.0170 282.2272 0036963  62.0466  11.2871 14.73123659892920"}}, "geometry": {"type": "Point", "coordinates": [133.2952259767914, -63.125869793502396]}}, {"type": "Feature", "properties": {"norad_id": 34015, "name": "COSMOS 2251 DEB", "group": "cosmos-2251-debris", "lat": -38.1513889247579, "lon": 144.583671644108, "alt_km": 692.2230972924572, "timestamp": "2025-12-13T16:48:33.103373+00:00", "meta": {"OBJECT_NAME": "COSMOS 2251 DEB", "OBJECT_ID": "1993-036HA", "EPOCH": "2025-12-12T22:00:06.842304", "MEAN_MOTION": 14.60254729, "ECCENTRICITY": 0.00210381, "INCLINATION": 74.0235, "RA_OF_ASC_NODE": 159.0861, "ARG_OF_PERICENTER": 256.1216, "MEAN_ANOMALY": 265.9223, "EPHEMERIS_TYPE": 0, "CLASSIFICATION_TYPE": "U", "NORAD_CAT_ID": 34015, "ELEMENT_SET_NO": 999, "REV_AT_EPOCH": 88533, "BSTAR": 0.0021239066, "MEAN_MOTION_DOT": 0.00010267, "MEAN_MOTION_DDOT": 0}, "tle": {"line1": "1 34015U 93036HA  25346.91674586  .00010267  00000+0  21239-2 0  9994", "line2": "2 34015  74.0235 159.0861 0021038 256.1216 265.9223 14.60254729885339"}}, "geometry": {"type": "Point", "coordinates": [144.583671644108, -38.1513889247579]}}, {"type": "Feature", "properties": {"norad_id": 34018, "name": "COSMOS 2251 DEB", "group": "cosmos-2251-debris", "lat": -10.981360360490841, "lon": -86.31434276224476, "alt_km": 878.427165426182, "timestamp": "2025-12-13T16:48:33.103384+00:00", "meta": {"OBJECT_NAME": "COSMOS 2251 DEB", "OBJECT_ID": "1993-036HD", "EPOCH": "2025-12-12T16:10:12.222912", "MEAN_MOTION": 13.81071901, "ECCENTRICITY": 0.02636729, "INCLINATION": 73.8778, "RA_OF_ASC_NODE": 92.2075, "ARG_OF_PERICENTER": 128.1105, "MEAN_ANOMALY": 358.1578, "EPHEMERIS_TYPE": 0, "CLASSIFICATION_TYPE": "U", "NORAD_CAT_ID": 34018, "ELEMENT_SET_NO": 999, "REV_AT_EPOCH": 84656, "BSTAR": 0.00076165071, "MEAN_MOTION_DOT": 1.026e-05, "MEAN_MOTION_DDOT": 0}, "tle": {"line1": "1 34018U 93036HD  25346.67375258  .00001026  00000+0  76165-3 0  9996", "line2": "2 34018  73.8778  92.2075 0263672 128.1105 358.1578 13.81071901846564"}}, "geometry": {"type": "Point", "coordinates": [-86.31434276224476, -10.981360360490841]}}, {"type": "Feature", "properties": {"norad_id": 34019, "name": "COSMOS 2251 DEB", "group": "cosmos-2251-debris", "lat": 42.1201795925244, "lon": -146.1092776534075, "alt_km": 777.890032987727, "timestamp": "2025-12-13T16:48:33.103394+00:00", "meta": {"OBJECT_NAME": "COSMOS 2251 DEB", "OBJECT_ID": "1993-036HE", "EPOCH": "2025-12-12T15:38:04.799616", "MEAN_MOTION": 14.33937763, "ECCENTRICITY": 0.00626836, "INCLINATION": 73.9547, "RA_OF_ASC_NODE": 50.9019, "ARG_OF_PERICENTER": 232.16, "MEAN_ANOMALY": 251.5593, "EPHEMERIS_TYPE": 0, "CLASSIFICATION_TYPE": "U", "NORAD_CAT_ID": 34019, "ELEMENT_SET_NO": 999, "REV_AT_EPOCH": 87519, "BSTAR": 0.0013577811, "MEAN_MOTION_DOT": 3.845e-05, "MEAN_MOTION_DDOT": 0}, "tle": {"line1": "1 34019U 93036HE  25346.65144444  .00003845  00000+0  13578-2 0  9995", "line2": "2 34019  73.9547  50.9019 0062683 232.1600 251.5593 14.33937763875193"}}, "geometry": {"type": "Point", "coordinates": [-146.1092776534075, 42.1201795925244]}}, {"type": "Feature", "properties": {"norad_id": 34021, "name": "COSMOS 2251 DEB", "group": "cosmos-2251-debris", "lat": -63.91676884933115, "lon": 92.23928271803119, "alt_km": 718.5942997487628, "timestamp": "2025-12-13T16:48:33.103404+00:00", "meta": {"OBJECT_NAME": "COSMOS 2251 DEB", "OBJECT_ID": "1993-036HG", "EPOCH": "2025-12-12T20:17:38.625216", "MEAN_MOTION": 14.49949272, "ECCENTRICITY": 0.00209286, "INCLINATION": 74.0358, "RA_OF_ASC_NODE": 129.6294, "ARG_OF_PERICENTER": 273.679, "MEAN_ANOMALY": 237.1079, "EPHEMERIS_TYPE": 0, "CLASSIFICATION_TYPE": "U", "NORAD_CAT_ID": 34021, "ELEMENT_SET_NO": 999, "REV_AT_EPOCH": 88631, "BSTAR": 0.00081473165, "MEAN_MOTION_DOT": 3.134e-05, "MEAN_MOTION_DDOT": 0}, "tle": {"line1": "1 34021U 93036HG  25346.84558594  .00003134  00000+0  81473-3 0  9995", "line2": "2 34021  74.0358 129.6294 0020928 273.6790 237.1079 14.49949272886313"}}, "geometry": {"type": "Point", "coordinates": [92.23928271803119, -63.91676884933115]}}, {"type": "Feature", "properties": {"norad_id": 34022, "name": "COSMOS 2251 DEB", "group": "cosmos-2251-debris", "lat": 64.15717343505756, "lon": -54.79632372698875, "alt_km": 756.8727036184055, "timestamp": "2025-12-13T16:48:33.103415+00:00", "meta": {"OBJECT_NAME": "COSMOS 2251 DEB", "OBJECT_ID": "1993-036HH", "EPOCH": "2025-12-12T20:46:11.913888", "MEAN_MOTION": 14.38964183, "ECCENTRICITY": 0.00227267, "INCLINATION": 74.0542, "RA_OF_ASC_NODE": 270.5632, "ARG_OF_PERICENTER": 335.5092, "MEAN_ANOMALY": 90.0534, "EPHEMERIS_TYPE": 0, "CLASSIFICATION_TYPE": "U", "NORAD_CAT_ID": 34022, "ELEMENT_SET_NO": 999, "REV_AT_EPOCH": 88197, "BSTAR": 0.00038914753, "MEAN_MOTION_DOT": 1.178e-05, "MEAN_MOTION_DDOT": 0}, "tle": {"line1": "1 34022U 93036HH  25346.86541567  .00001178  00000+0  38915-3 0  9999", "line2": "2 34022  74.0542 270.5632 0022726 335.5092  90.0534 14.38964183881977"}}, "geometry": {"type": "Point", "coordinates": [-54.79632372698875, 64.15717343505756]}}, {"type": "Feature", "properties": {"norad_id": 34023, "name": "COSMOS 2251 DEB", "group": "cosmos-2251-debris", "lat": -5.740569785745654, "lon": -111.68443371229739, "alt_km": 746.9316141510817, "timestamp": "2025-12-13T16:48:33.103425+00:00", "meta": {"OBJECT_NAME": "COSMOS 2251 DEB", "OBJECT_ID": "1993-036HJ", "EPOCH": "2025-12-13T00:15:21.450816", "MEAN_MOTION": 14.40562498, "ECCENTRICITY": 0.00184807, "INCLINATION": 74.0249, "RA_OF_ASC_NODE": 251.2417, "ARG_OF_PERICENTER": 346.856, "MEAN_ANOMALY": 31.8005, "EPHEMERIS_TYPE": 0, "CLASSIFICATION_TYPE": "U", "NORAD_CAT_ID": 34023, "ELEMENT_SET_NO": 999, "REV_AT_EPOCH": 88218, "BSTAR": 0.00051849123, "MEAN_MOTION_DOT": 1.629e-05, "MEAN_MOTION_DDOT": 0}, "tle": {"line1": "1 34023U 93036HJ  25347.01066494  .00001629  00000+0  51849-3 0  9991", "line2": "2 34023  74.0249 251.2417 0018480 346.8560  31.8005 14.40562498882182"}}, "geometry": {"type": "Point", "coordinates": [-111.68443371229739, -5.740569785745654]}}, {"type": "Feature", "properties": {"norad_id": 34024, "name": "COSMOS 2251 DEB", "group": "cosmos-2251-debris", "lat": -13.89427993866637, "lon": -49.82467498448904, "alt_km": 763.7466701384592, "timestamp": "2025-12-13T16:48:33.103434+00:00", "meta": {"OBJECT_NAME": "COSMOS 2251 DEB", "OBJECT_ID": "1993-036HK", "EPOCH": "2025-12-13T00:27:09.393408", "MEAN_MOTION": 14.35397025, "ECCENTRICITY": 0.00210395, "INCLINATION": 74.0465, "RA_OF_ASC_NODE": 315.4816, "ARG_OF_PERICENTER": 6.1353, "MEAN_ANOMALY": 59.2802, "EPHEMERIS_TYPE": 0, "CLASSIFICATION_TYPE": "U", "NORAD_CAT_ID": 34024, "ELEMENT_SET_NO": 999, "REV_AT_EPOCH": 88028, "BSTAR": 0.00030954317, "MEAN_MOTION_DOT": 8.65e-06, "MEAN_MOTION_DDOT": 0}, "tle": {"line1": "1 34024U 93036HK  25347.01885872  .00000865  00000+0  30954-3 0  9996", "line2": "2 34024  74.0465 315.4816 0021039   6.1353  59.2802 14.35397025880283"}}, "geometry": {"type": "Point", "coordinates": [-49.82467498448904, -13.89427993866637]}}, {"type": "Feature", "properties": {"norad_id": 34026, "name": "COSMOS 2251 DEB", "group": "cosmos-2251-debris", "lat": -7.415700993176396, "lon": -26.484560073136628, "alt_km": 1234.0900942878725, "timestamp": "2025-12-13T16:48:33.103444+00:00", "meta": {"OBJECT_NAME": "COSMOS 2251 DEB", "OBJECT_ID": "1993-036HM", "EPOCH": "2025-12-12T23:24:53.502336", "MEAN_MOTION": 13.65309632, "ECCENTRICITY": 0.03505785, "INCLINATION": 73.7668, "RA_OF_ASC_NODE": 336.8932, "ARG_OF_PERICENTER": 206.8736, "MEAN_ANOMALY": 182.2794, "EPHEMERIS_TYPE": 0, "CLASSIFICATION_TYPE": "U", "NORAD_CAT_ID": 34026, "ELEMENT_SET_NO": 999, "REV_AT_EPOCH": 83535, "BSTAR": 0.00099997322, "MEAN_MOTION_DOT": 1.214e-05, "MEAN_MOTION_DDOT": 0}, "tle": {"line1": "1 34026U 93036HM  25346.97561924  .00001214  00000+0  99997-3 0  9992", "line2": "2 34026  73.7668 336.8932 0350578 206.8736 182.2794 13.65309632835353"}}, "geometry": {"type": "Point", "coordinates": [-26.484560073136628, -7.415700993176396]}}, {"type": "Feature", "properties": {"norad_id": 34028, "name": "COSMOS 2251 DEB", "group": "cosmos-2251-debris", "lat": -36.35740725504923, "lon": 178.06606902358206, "alt_km": 1198.5210696816512, "timestamp": "2025-12-13T16:48:33.103455+00:00", "meta": {"OBJECT_NAME": "COSMOS 2251 DEB", "OBJECT_ID": "1993-036HP", "EPOCH": "2025-12-12T18:48:32.372064", "MEAN_MOTION": 13.20622701, "ECCENTRICITY": 0.05436979, "INCLINATION": 73.8832, "RA_OF_ASC_NODE": 347.1829, "ARG_OF_PERICENTER": 125.0225, "MEAN_ANOMALY": 50.226, "EPHEMERIS_TYPE": 0, "CLASSIFICATION_TYPE": "U", "NORAD_CAT_ID": 34028, "ELEMENT_SET_NO": 999, "REV_AT_EPOCH": 81008, "BSTAR": 0.00046838294, "MEAN_MOTION_DOT": 3.97e-06, "MEAN_MOTION_DDOT": 0}, "tle": {"line1": "1 34028U 93036HP  25346.78370801  .00000397  00000+0  46838-3 0  9992", "line2": "2 34028  73.8832 347.1829 0543697 125.0225  50.2260 13.20622701810081"}}, "geometry": {"type": "Point", "coordinates": [178.06606902358206, -36.35740725504923]}}]}